      2.10          N: GNSS NAV DATA                        RINEX VERSION / TYPE
fic2rin                                 04/30/2021 00:17:16 PGM / RUN BY / DATE
                                                            END OF HEADER
32 21  4 29  8  0  0.0 2.188421785831e-05-3.410605131648e-13 0.000000000000e+00
    3.400000000000e+01-2.103125000000e+01 5.203788187237e-09-2.281551861576e+00
   -1.046806573868e-06 4.896383383311e-03 5.695968866348e-06 5.153652837753e+03
    3.744000000000e+05 1.285225152969e-07-8.595169020318e-01-3.166496753693e-08
    9.570530619015e-01 2.664375000000e+02-2.379928362552e+00-8.220342410257e-09
   -2.175090601254e-10 1.000000000000e+00 2.155000000000e+03 0.000000000000e+00
    2.400000000000e+00 0.000000000000e+00 4.656612873077e-10 3.400000000000e+01
    3.672000000000e+05 4.000000000000e+00
24 21  4 29  8  0  0.0 4.397751763463e-05 2.739852789091e-11 0.000000000000e+00
    4.000000000000e+01 3.450000000000e+01 5.020923427329e-09 1.447603105886e+00
    1.909211277962e-06 1.105430279858e-02 1.178309321404e-05 5.153739568710e+03
    3.744000000000e+05-1.993030309677e-07 1.251587493643e-01 1.844018697739e-07
    9.356281292385e-01 1.413437500000e+02 7.381079247692e-01-8.194984211129e-09
   -6.243117193748e-10 1.000000000000e+00 2.155000000000e+03 0.000000000000e+00
    3.400000000000e+00 0.000000000000e+00 2.793967723846e-09 4.000000000000e+01
    3.672000000000e+05 4.000000000000e+00
21 21  4 29  8  0  0.0 1.144991256297e-04 2.728484105319e-12 0.000000000000e+00
    3.400000000000e+01-1.474062500000e+02 4.043382708834e-09-2.833283259403e+00
   -7.385388016701e-06 2.410467353184e-02 9.352341294289e-06 5.153703308105e+03
    3.744000000000e+05 1.862645149231e-07-3.020140215957e+00 2.607703208923e-07
    9.572620660817e-01 1.873125000000e+02-1.147490626025e+00-7.525313459511e-09
    6.928860043404e-11 1.000000000000e+00 2.155000000000e+03 0.000000000000e+00
    2.400000000000e+00 0.000000000000e+00-1.024454832077e-08 3.400000000000e+01
    3.672000000000e+05 4.000000000000e+00
20 21  4 29  8  0  0.0 5.226992070675e-04-3.410605131648e-13 0.000000000000e+00
    2.100000000000e+01 9.062500000000e+00 5.125213485714e-09 1.033297303472e+00
    4.172325134277e-07 6.053680204786e-03 1.017935574055e-05 5.151706336975e+03
    3.744000000000e+05 4.097819328308e-08-2.044665415196e+00 1.508742570877e-07
    9.376696182519e-01 1.731562500000e+02 3.028651237812e+00-8.203555996750e-09
    7.411022984569e-10 1.000000000000e+00 2.155000000000e+03 0.000000000000e+00
    2.400000000000e+00 0.000000000000e+00-8.381903171539e-09 2.100000000000e+01
    3.672000000000e+05 4.000000000000e+00
12 21  4 29  8  0  0.0-3.420421853662e-05-5.115907697473e-12 0.000000000000e+00
    9.800000000000e+01 1.325000000000e+02 4.304822170265e-09-2.481489977047e-01
    6.955116987228e-06 8.472113520838e-03 4.656612873077e-06 5.153753927231e+03
    3.744000000000e+05-1.490116119385e-08 1.313060333913e+00 1.955777406693e-07
    9.738016920749e-01 2.978437500000e+02 1.205508062570e+00-8.260701234221e-09
    2.171519023912e-10 1.000000000000e+00 2.155000000000e+03 0.000000000000e+00
    2.400000000000e+00 0.000000000000e+00-1.257285475731e-08 9.800000000000e+01
    3.672000000000e+05 4.000000000000e+00
29 21  4 29  8  0  0.0-3.382903523743e-04-6.593836587854e-12 0.000000000000e+00
    1.010000000000e+02-8.165625000000e+01 4.160530445650e-09-2.833517431626e+00
   -4.181638360023e-06 1.783779938705e-03 1.054257154465e-06 5.153648252487e+03
    3.744000000000e+05-3.539025783539e-08 2.361938466869e+00-5.587935447693e-09
    9.840851825493e-01 3.720312500000e+02 2.114352838917e+00-8.269987335310e-09
   -2.600108304947e-10 1.000000000000e+00 2.155000000000e+03 0.000000000000e+00
    3.400000000000e+00 0.000000000000e+00-9.778887033463e-09 1.010000000000e+02
    3.672000000000e+05 4.000000000000e+00
31 21  4 29  8  0  0.0-1.143566332757e-04-2.160049916711e-12 0.000000000000e+00
    5.100000000000e+01 5.103125000000e+01 4.470543358932e-09-5.278346529463e-02
    2.589076757431e-06 9.944584802724e-03 1.213327050209e-05 5.153781158447e+03
    3.744000000000e+05 1.061707735062e-07 2.198537833468e-01 1.117587089539e-08
    9.565761462190e-01 1.421562500000e+02 2.591441056608e-01-7.967474734446e-09
   -6.300262431219e-10 1.000000000000e+00 2.155000000000e+03 0.000000000000e+00
    2.400000000000e+00 0.000000000000e+00-1.303851604462e-08 5.100000000000e+01
    3.672000000000e+05 4.000000000000e+00
16 21  4 29  8  0  0.0-3.171451389790e-04-6.025402399246e-12 0.000000000000e+00
    1.100000000000e+02 1.500625000000e+02 4.136600877459e-09-2.086323466032e+00
    7.707625627518e-06 1.224582677241e-02 4.865229129791e-06 5.153692735672e+03
    3.744000000000e+05 7.264316082001e-08 1.331826989357e+00-1.415610313416e-07
    9.738781690434e-01 2.936875000000e+02 6.747272096451e-01-7.996761668650e-09
    3.528718413857e-10 1.000000000000e+00 2.155000000000e+03 0.000000000000e+00
    3.400000000000e+00 0.000000000000e+00-1.024454832077e-08 1.100000000000e+02
    3.672000000000e+05 4.000000000000e+00
10 21  4 29  8  0  0.0-1.116823405027e-04-7.730704965070e-12 0.000000000000e+00
    6.700000000000e+01 8.312500000000e+00 4.492329980718e-09-9.569110739986e-01
    5.532056093216e-07 6.606663228013e-03 9.234994649887e-06 5.153667867661e+03
    3.744000000000e+05 1.434236764908e-07-1.902608288438e+00 8.940696716309e-08
    9.686260371281e-01 2.030625000000e+02-2.561253377775e+00-7.876756669960e-09
    8.182483690432e-10 1.000000000000e+00 2.155000000000e+03 0.000000000000e+00
    2.400000000000e+00 0.000000000000e+00 2.328306436539e-09 6.700000000000e+01
    3.672000000000e+05 4.000000000000e+00
 6 21  4 29  8  0  0.0 1.109763979912e-05 3.296918293927e-12 0.000000000000e+00
    7.400000000000e+01-1.145625000000e+02 3.554790928454e-09 1.325396794382e+00
   -5.872920155525e-06 2.254946506582e-03 1.013465225697e-05 5.153760398865e+03
    3.744000000000e+05 4.470348358154e-08-2.945458995561e+00-6.519258022308e-08
    9.838976935053e-01 1.949687500000e+02-9.824713118051e-01-7.603531003300e-09
    1.160762636137e-10 1.000000000000e+00 2.155000000000e+03 0.000000000000e+00
    2.400000000000e+00 0.000000000000e+00 4.190951585770e-09 7.400000000000e+01
    3.672000000000e+05 4.000000000000e+00
13 21  4 29  8  0  0.0 1.257313415408e-04 4.661160346586e-12 0.000000000000e+00
    5.000000000000e+00-2.253125000000e+01 4.840201613825e-09 2.700262820465e+00
   -1.238659024239e-06 4.934406955726e-03 6.493180990219e-06 5.153670602798e+03
    3.744000000000e+05-6.146728992462e-08-7.212186862246e-01-9.499490261078e-08
    9.680037322581e-01 2.579687500000e+02 9.825402254871e-01-7.978546624206e-09
   -4.375182243902e-10 1.000000000000e+00 2.155000000000e+03 0.000000000000e+00
    2.400000000000e+00 0.000000000000e+00-1.117587089539e-08 5.000000000000e+00
    3.672000000000e+05 4.000000000000e+00
 7 21  4 29  8  0  0.0 1.362450420856e-04 1.114131009672e-11 0.000000000000e+00
    6.800000000000e+01 3.843750000000e+01 4.675551898361e-09 5.134483165547e-01
    2.324581146240e-06 1.478353224229e-02 1.158379018307e-05 5.153767028809e+03
    3.744000000000e+05-1.750886440277e-07 2.029231325173e-01 1.955777406693e-07
    9.522536577814e-01 1.526250000000e+02-2.339265673862e+00-8.147125074747e-09
   -6.753852753648e-10 1.000000000000e+00 2.155000000000e+03 0.000000000000e+00
    2.400000000000e+00 0.000000000000e+00-1.117587089539e-08 6.800000000000e+01
    3.672000000000e+05 4.000000000000e+00
14 21  4 29  8  0  0.0 9.185448288918e-05-3.979039320257e-12 0.000000000000e+00
    1.950000000000e+02 1.275312500000e+02 4.508044921023e-09 2.300811826162e-01
    6.446614861488e-06 6.172368302941e-04 5.191192030907e-06 5.153754547119e+03
    3.744000000000e+05 3.166496753693e-08 1.286344801904e+00-1.490116119385e-08
    9.573134569309e-01 2.807500000000e+02 2.557898927100e+00-8.250343659930e-09
    8.178912113090e-11 1.000000000000e+00 2.155000000000e+03 0.000000000000e+00
    2.400000000000e+00 0.000000000000e+00-7.916241884232e-09 1.950000000000e+02
    3.672000000000e+05 4.000000000000e+00
30 21  4 29  8  0  0.0-4.193102940917e-04-5.115907697473e-12 0.000000000000e+00
    8.800000000000e+01 3.928125000000e+01 4.905561479183e-09 3.596152902774e-01
    2.015382051468e-06 5.135551327839e-03 1.139752566814e-05 5.153718751907e+03
    3.744000000000e+05-1.862645149231e-09 2.205065929847e-01 5.960464477539e-08
    9.374703936791e-01 1.426562500000e+02-2.798464354976e+00-8.164268645988e-09
   -5.743096365873e-10 1.000000000000e+00 2.155000000000e+03 0.000000000000e+00
    2.400000000000e+00 0.000000000000e+00 3.725290298462e-09 8.800000000000e+01
    3.672000000000e+05 4.000000000000e+00
25 21  4 29  8  0  0.0 1.276386901736e-04 7.162270776462e-12 0.000000000000e+00
    5.500000000000e+01 1.551250000000e+02 4.525902807733e-09-5.459434253522e-01
    8.093193173409e-06 9.925300488248e-03 5.146488547325e-06 5.153643526077e+03
    3.744000000000e+05 5.029141902924e-08 1.239889079043e+00 1.545995473862e-07
    9.611994471866e-01 2.802500000000e+02 9.650217317486e-01-8.430351157964e-09
    1.771502361613e-10 1.000000000000e+00 2.155000000000e+03 0.000000000000e+00
    2.400000000000e+00 0.000000000000e+00 5.587935447693e-09 5.500000000000e+01
    3.672000000000e+05 4.000000000000e+00
23 21  4 29  8  0  0.0 1.105428673327e-04-2.614797267597e-12 0.000000000000e+00
    6.500000000000e+01 7.437500000000e+00 4.621621080497e-09 6.861528382999e-01
    4.637986421585e-07 1.132989069447e-03 9.698793292046e-06 5.153646486282e+03
    3.744000000000e+05-1.862645149231e-09-1.925946896425e+00 3.352761268616e-08
    9.636239720406e-01 1.944375000000e+02 2.585140919439e+00-7.919615598064e-09
    8.064621638148e-10 1.000000000000e+00 2.155000000000e+03 0.000000000000e+00
    2.400000000000e+00 0.000000000000e+00-8.381903171539e-09 8.330000000000e+02
    3.672000000000e+05 4.000000000000e+00
